[{"OBJECT_NAME":"STARLINK-11449 [DTC]","OBJECT_ID":"2025-032H","EPOCH":"2026-01-05T07:00:12.098016","MEAN_MOTION":15.70922907,"ECCENTRICITY":0.00020525,"INCLINATION":42.9997,"RA_OF_ASC_NODE":217.4199,"ARG_OF_PERICENTER":276.6087,"MEAN_ANOMALY":83.4547,"EPHEMERIS_TYPE":0,"CLASSIFICATION_TYPE":"U","NORAD_CAT_ID":63012,"ELEMENT_SET_NO":999,"REV_AT_EPOCH":5224,"BSTAR":0.0018335912,"MEAN_MOTION_DOT":0.00242671,"MEAN_MOTION_DDOT":0},{"OBJECT_NAME":"STARLINK-11577 [DTC]","OBJECT_ID":"2025-032J","EPOCH":"2026-01-05T07:15:29.633184","MEAN_MOTION":15.70930467,"ECCENTRICITY":0.00015258,"INCLINATION":42.9991,"RA_OF_ASC_NODE":217.5051,"ARG_OF_PERICENTER":273.2495,"MEAN_ANOMALY":86.8199,"EPHEMERIS_TYPE":0,"CLASSIFICATION_TYPE":"U","NORAD_CAT_ID":63013,"ELEMENT_SET_NO":999,"REV_AT_EPOCH":5224,"BSTAR":0.0021269107,"MEAN_MOTION_DOT":0.00283036,"MEAN_MOTION_DDOT":0},{"OBJECT_NAME":"STARLINK-11578 [DTC]","OBJECT_ID":"2025-032K","EPOCH":"2026-01-05T00:00:38.072160","MEAN_MOTION":15.70867333,"ECCENTRICITY":0.0001829,"INCLINATION":42.998,"RA_OF_ASC_NODE":219.5503,"ARG_OF_PERICENTER":271.5353,"MEAN_ANOMALY":88.5305,"EPHEMERIS_TYPE":0,"CLASSIFICATION_TYPE":"U","NORAD_CAT_ID":63014,"ELEMENT_SET_NO":999,"REV_AT_EPOCH":5214,"BSTAR":0.00092916902,"MEAN_MOTION_DOT":0.00120662,"MEAN_MOTION_DDOT":0},{"OBJECT_NAME":"STARLINK-11541 [DTC]","OBJECT_ID":"2025-032L","EPOCH":"2026-01-05T06:37:14.310048","MEAN_MOTION":15.71028218,"ECCENTRICITY":0.00070715,"INCLINATION":43.0019,"RA_OF_ASC_NODE":217.2906,"ARG_OF_PERICENTER":261.7409,"MEAN_ANOMALY":98.2657,"EPHEMERIS_TYPE":0,"CLASSIFICATION_TYPE":"U","NORAD_CAT_ID":63015,"ELEMENT_SET_NO":999,"REV_AT_EPOCH":5225,"BSTAR":0.0018595047,"MEAN_MOTION_DOT":0.0024758,"MEAN_MOTION_DDOT":0},{"OBJECT_NAME":"STARLINK-11545 [DTC]","OBJECT_ID":"2025-032M","EPOCH":"2026-01-05T06:52:33.974976","MEAN_MOTION":15.71097797,"ECCENTRICITY":0.0001549,"INCLINATION":42.9989,"RA_OF_ASC_NODE":217.3777,"ARG_OF_PERICENTER":312.0437,"MEAN_ANOMALY":48.0299,"EPHEMERIS_TYPE":0,"CLASSIFICATION_TYPE":"U","NORAD_CAT_ID":63016,"ELEMENT_SET_NO":999,"REV_AT_EPOCH":5225,"BSTAR":0.0018767153,"MEAN_MOTION_DOT":0.00250456,"MEAN_MOTION_DDOT":0},{"OBJECT_NAME":"STARLINK-11400 [DTC]","OBJECT_ID":"2025-032N","EPOCH":"2026-01-04T20:49:52.069728","MEAN_MOTION":15.7099152,"ECCENTRICITY":0.00014898,"INCLINATION":42.9976,"RA_OF_ASC_NODE":220.2707,"ARG_OF_PERICENTER":234.5363,"MEAN_ANOMALY":125.5366,"EPHEMERIS_TYPE":0,"CLASSIFICATION_TYPE":"U","NORAD_CAT_ID":63017,"ELEMENT_SET_NO":999,"REV_AT_EPOCH":5217,"BSTAR":0.0014771199,"MEAN_MOTION_DOT":0.00194832,"MEAN_MOTION_DDOT":0},{"OBJECT_NAME":"STARLINK-32870","OBJECT_ID":"2025-032P","EPOCH":"2026-01-05T05:29:22.325568","MEAN_MOTION":15.27573936,"ECCENTRICITY":0.00039571,"INCLINATION":42.9958,"RA_OF_ASC_NODE":334.5222,"ARG_OF_PERICENTER":240.9306,"MEAN_ANOMALY":119.1149,"EPHEMERIS_TYPE":0,"CLASSIFICATION_TYPE":"U","NORAD_CAT_ID":63018,"ELEMENT_SET_NO":999,"REV_AT_EPOCH":5091,"BSTAR":0.0012184659,"MEAN_MOTION_DOT":0.00033419,"MEAN_MOTION_DDOT":0},{"OBJECT_NAME":"STARLINK-32872","OBJECT_ID":"2025-032Q","EPOCH":"2026-01-05T04:26:41.224704","MEAN_MOTION":15.27611061,"ECCENTRICITY":0.00014951,"INCLINATION":43,"RA_OF_ASC_NODE":335.0526,"ARG_OF_PERICENTER":278.7983,"MEAN_ANOMALY":81.27,"EPHEMERIS_TYPE":0,"CLASSIFICATION_TYPE":"U","NORAD_CAT_ID":63019,"ELEMENT_SET_NO":999,"REV_AT_EPOCH":5090,"BSTAR":0.0013963285,"MEAN_MOTION_DOT":0.00038399,"MEAN_MOTION_DDOT":0},{"OBJECT_NAME":"STARLINK-32677","OBJECT_ID":"2025-032R","EPOCH":"2026-01-05T05:34:55.866720","MEAN_MOTION":15.27600806,"ECCENTRICITY":0.00020506,"INCLINATION":43.0036,"RA_OF_ASC_NODE":334.5482,"ARG_OF_PERICENTER":247.3441,"MEAN_ANOMALY":112.7194,"EPHEMERIS_TYPE":0,"CLASSIFICATION_TYPE":"U","NORAD_CAT_ID":63020,"ELEMENT_SET_NO":999,"REV_AT_EPOCH":5090,"BSTAR":0.002035091,"MEAN_MOTION_DOT":0.00056204,"MEAN_MOTION_DDOT":0},{"OBJECT_NAME":"STARLINK-32929","OBJECT_ID":"2025-032S","EPOCH":"2026-01-05T05:40:27.313536","MEAN_MOTION":15.275957,"ECCENTRICITY":0.00077713,"INCLINATION":43.0015,"RA_OF_ASC_NODE":334.5728,"ARG_OF_PERICENTER":228.7556,"MEAN_ANOMALY":131.2627,"EPHEMERIS_TYPE":0,"CLASSIFICATION_TYPE":"U","NORAD_CAT_ID":63021,"ELEMENT_SET_NO":999,"REV_AT_EPOCH":5091,"BSTAR":0.0011645696,"MEAN_MOTION_DOT":0.00031963,"MEAN_MOTION_DDOT":0},{"OBJECT_NAME":"STARLINK-32944","OBJECT_ID":"2025-032T","EPOCH":"2026-01-05T04:32:14.488512","MEAN_MOTION":15.27625188,"ECCENTRICITY":7.755e-5,"INCLINATION":42.9965,"RA_OF_ASC_NODE":335.0831,"ARG_OF_PERICENTER":122.8881,"MEAN_ANOMALY":237.2045,"EPHEMERIS_TYPE":0,"CLASSIFICATION_TYPE":"U","NORAD_CAT_ID":63022,"ELEMENT_SET_NO":999,"REV_AT_EPOCH":5090,"BSTAR":0.00098643578,"MEAN_MOTION_DOT":0.00027019,"MEAN_MOTION_DDOT":0},{"OBJECT_NAME":"STARLINK-32943","OBJECT_ID":"2025-032U","EPOCH":"2026-01-05T06:37:38.114976","MEAN_MOTION":15.27603243,"ECCENTRICITY":0.00013019,"INCLINATION":43.0052,"RA_OF_ASC_NODE":334.0118,"ARG_OF_PERICENTER":274.023,"MEAN_ANOMALY":86.0473,"EPHEMERIS_TYPE":0,"CLASSIFICATION_TYPE":"U","NORAD_CAT_ID":63023,"ELEMENT_SET_NO":999,"REV_AT_EPOCH":5092,"BSTAR":0.0016542497,"MEAN_MOTION_DOT":0.00045573,"MEAN_MOTION_DDOT":0},{"OBJECT_NAME":"STARLINK-32803","OBJECT_ID":"2025-032V","EPOCH":"2026-01-05T06:32:05.057664","MEAN_MOTION":15.27577913,"ECCENTRICITY":0.00012995,"INCLINATION":43.0025,"RA_OF_ASC_NODE":333.9777,"ARG_OF_PERICENTER":258.4934,"MEAN_ANOMALY":101.5772,"EPHEMERIS_TYPE":0,"CLASSIFICATION_TYPE":"U","NORAD_CAT_ID":63024,"ELEMENT_SET_NO":999,"REV_AT_EPOCH":5076,"BSTAR":0.0013365438,"MEAN_MOTION_DOT":0.00036697,"MEAN_MOTION_DDOT":0},{"OBJECT_NAME":"STARLINK-32926","OBJECT_ID":"2025-032W","EPOCH":"2026-01-05T06:22:49.899648","MEAN_MOTION":15.27579406,"ECCENTRICITY":0.0001613,"INCLINATION":42.999,"RA_OF_ASC_NODE":333.9288,"ARG_OF_PERICENTER":287.8998,"MEAN_ANOMALY":72.1677,"EPHEMERIS_TYPE":0,"CLASSIFICATION_TYPE":"U","NORAD_CAT_ID":63025,"ELEMENT_SET_NO":999,"REV_AT_EPOCH":5092,"BSTAR":0.0021165892,"MEAN_MOTION_DOT":0.00058444,"MEAN_MOTION_DDOT":0},{"OBJECT_NAME":"STARLINK-32798","OBJECT_ID":"2025-034A","EPOCH":"2026-01-04T18:38:16.681344","MEAN_MOTION":15.30215332,"ECCENTRICITY":6.848e-5,"INCLINATION":53.1574,"RA_OF_ASC_NODE":207.6258,"ARG_OF_PERICENTER":76.9943,"MEAN_ANOMALY":283.1135,"EPHEMERIS_TYPE":0,"CLASSIFICATION_TYPE":"U","NORAD_CAT_ID":63029,"ELEMENT_SET_NO":999,"REV_AT_EPOCH":4912,"BSTAR":0.0012525297,"MEAN_MOTION_DOT":0.00036939,"MEAN_MOTION_DDOT":0},{"OBJECT_NAME":"STARLINK-32779","OBJECT_ID":"2025-034B","EPOCH":"2026-01-04T20:00:21.203136","MEAN_MOTION":15.30239696,"ECCENTRICITY":9.727e-5,"INCLINATION":53.158,"RA_OF_ASC_NODE":207.9807,"ARG_OF_PERICENTER":78.9106,"MEAN_ANOMALY":281.2004,"EPHEMERIS_TYPE":0,"CLASSIFICATION_TYPE":"U","NORAD_CAT_ID":63030,"ELEMENT_SET_NO":999,"REV_AT_EPOCH":4912,"BSTAR":0.001276465,"MEAN_MOTION_DOT":0.00037684,"MEAN_MOTION_DDOT":0}]
