STARLINK-11449 [DTC]    
1 63012U 25032H   26005.29180669  .00242671  00000+0  18336-2 0  9992
2 63012  42.9997 217.4199 0002052 276.6087  83.4547 15.70922907 52248
STARLINK-11577 [DTC]    
1 63013U 25032J   26005.30242631  .00283036  00000+0  21269-2 0  9992
2 63013  42.9991 217.5051 0001525 273.2495  86.8199 15.70930467 52241
STARLINK-11578 [DTC]    
1 63014U 25032K   26005.00044065  .00120662  00000+0  92917-3 0  9995
2 63014  42.9980 219.5503 0001829 271.5353  88.5305 15.70867333 52143
STARLINK-11541 [DTC]    
1 63015U 25032L   26005.27586007  .00247580  00000+0  18595-2 0  9990
2 63015  43.0019 217.2906 0007071 261.7409  98.2657 15.71028218 52251
STARLINK-11545 [DTC]    
1 63016U 25032M   26005.28650434  .00250456  00000+0  18767-2 0  9995
2 63016  42.9989 217.3777 0001549 312.0437  48.0299 15.71097797 52251
STARLINK-11400 [DTC]    
1 63017U 25032N   26004.86796377  .00194832  00000+0  14771-2 0  9992
2 63017  42.9976 220.2707 0001489 234.5363 125.5366 15.70991520 52176
STARLINK-32870          
1 63018U 25032P   26005.22873062  .00033419  00000+0  12185-2 0  9991
2 63018  42.9958 334.5222 0003957 240.9306 119.1149 15.27573936 50915
STARLINK-32872          
1 63019U 25032Q   26005.18519936  .00038399  00000+0  13963-2 0  9991
2 63019  43.0000 335.0526 0001495 278.7983  81.2700 15.27611061 50907
STARLINK-32677          
1 63020U 25032R   26005.23259105  .00056204  00000+0  20351-2 0  9992
2 63020  43.0036 334.5482 0002050 247.3441 112.7194 15.27600806 50904
STARLINK-32929          
1 63021U 25032S   26005.23642724  .00031963  00000+0  11646-2 0  9998
2 63021  43.0015 334.5728 0007771 228.7556 131.2627 15.27595700 50914
STARLINK-32944          
1 63022U 25032T   26005.18905658  .00027019  00000+0  98644-3 0  9992
2 63022  42.9965 335.0831 0000775 122.8881 237.2045 15.27625188 50904
STARLINK-32943          
1 63023U 25032U   26005.27613559  .00045573  00000+0  16542-2 0  9990
2 63023  43.0052 334.0118 0001301 274.0230  86.0473 15.27603243 50920
STARLINK-32803          
1 63024U 25032V   26005.27228076  .00036697  00000+0  13365-2 0  9994
2 63024  43.0025 333.9777 0001299 258.4934 101.5772 15.27577913 50764
STARLINK-32926          
1 63025U 25032W   26005.26585532  .00058444  00000+0  21166-2 0  9999
2 63025  42.9990 333.9288 0001613 287.8998  72.1677 15.27579406 50921
STARLINK-32798          
1 63029U 25034A   26004.77658196  .00036939  00000+0  12525-2 0  9991
2 63029  53.1574 207.6258 0000684  76.9943 283.1135 15.30215332 49127
STARLINK-32779          
1 63030U 25034B   26004.83357874  .00037684  00000+0  12765-2 0  9993
2 63030  53.1580 207.9807 0000972  78.9106 281.2004 15.30239696 49125
